[{"OBJECT_NAME":"STARLINK-32617","OBJECT_ID":"2024-217V","EPOCH":"2026-03-09T15:06:25.002720","MEAN_MOTION":15.30191631,"ECCENTRICITY":0.0001102,"INCLINATION":53.1607,"RA_OF_ASC_NODE":181.2847,"ARG_OF_PERICENTER":83.9922,"MEAN_ANOMALY":276.1205,"EPHEMERIS_TYPE":0,"CLASSIFICATION_TYPE":"U","NORAD_CAT_ID":62076,"ELEMENT_SET_NO":999,"REV_AT_EPOCH":7359,"BSTAR":0.00097861,"MEAN_MOTION_DOT":0.00028729,"MEAN_MOTION_DDOT":0},{"OBJECT_NAME":"COSMOS 546","OBJECT_ID":"1973-005A","EPOCH":"2026-03-09T21:40:39.247392","MEAN_MOTION":15.29707303,"ECCENTRICITY":0.00147738,"INCLINATION":50.6327,"RA_OF_ASC_NODE":289.914,"ARG_OF_PERICENTER":261.1516,"MEAN_ANOMALY":98.7778,"EPHEMERIS_TYPE":0,"CLASSIFICATION_TYPE":"U","NORAD_CAT_ID":6350,"ELEMENT_SET_NO":999,"REV_AT_EPOCH":92802,"BSTAR":9.142057e-5,"MEAN_MOTION_DOT":2.316e-5,"MEAN_MOTION_DDOT":0}]
